[{"OBJECT_NAME":"STARLINK-6349","OBJECT_ID":"2023-094Z","EPOCH":"2025-08-25T15:26:30.370848","MEAN_MOTION":15.02535102,"ECCENTRICITY":0.00013319,"INCLINATION":43.0055,"RA_OF_ASC_NODE":3.0944,"ARG_OF_PERICENTER":273.9079,"MEAN_ANOMALY":86.1611,"EPHEMERIS_TYPE":0,"CLASSIFICATION_TYPE":"U","NORAD_CAT_ID":57241,"ELEMENT_SET_NO":999,"REV_AT_EPOCH":11777,"BSTAR":3.8391962e-5,"MEAN_MOTION_DOT":3.15e-6,"MEAN_MOTION_DDOT":0},{"OBJECT_NAME":"STARLINK-6306","OBJECT_ID":"2023-094AA","EPOCH":"2025-08-25T15:21:42.672672","MEAN_MOTION":15.02535119,"ECCENTRICITY":0.00015313,"INCLINATION":43.0054,"RA_OF_ASC_NODE":3.0674,"ARG_OF_PERICENTER":273.2979,"MEAN_ANOMALY":86.7689,"EPHEMERIS_TYPE":0,"CLASSIFICATION_TYPE":"U","NORAD_CAT_ID":57242,"ELEMENT_SET_NO":999,"REV_AT_EPOCH":11777,"BSTAR":1.6725147e-5,"MEAN_MOTION_DOT":2.2e-7,"MEAN_MOTION_DDOT":0},{"OBJECT_NAME":"STARLINK-6346","OBJECT_ID":"2023-094AB","EPOCH":"2025-08-25T15:24:54.463392","MEAN_MOTION":15.02538686,"ECCENTRICITY":0.00011706,"INCLINATION":43.0047,"RA_OF_ASC_NODE":3.0832,"ARG_OF_PERICENTER":274.6942,"MEAN_ANOMALY":85.3766,"EPHEMERIS_TYPE":0,"CLASSIFICATION_TYPE":"U","NORAD_CAT_ID":57243,"ELEMENT_SET_NO":999,"REV_AT_EPOCH":11777,"BSTAR":5.5245509e-5,"MEAN_MOTION_DOT":5.43e-6,"MEAN_MOTION_DDOT":0},{"OBJECT_NAME":"STARLINK-5610","OBJECT_ID":"2023-094AC","EPOCH":"2025-08-25T08:47:36.513312","MEAN_MOTION":15.02533209,"ECCENTRICITY":0.00011665,"INCLINATION":43.0043,"RA_OF_ASC_NODE":4.4506,"ARG_OF_PERICENTER":269.1534,"MEAN_ANOMALY":90.9175,"EPHEMERIS_TYPE":0,"CLASSIFICATION_TYPE":"U","NORAD_CAT_ID":57244,"ELEMENT_SET_NO":999,"REV_AT_EPOCH":11773,"BSTAR":7.0544812e-5,"MEAN_MOTION_DOT":7.49e-6,"MEAN_MOTION_DDOT":0},{"OBJECT_NAME":"STARLINK-5587","OBJECT_ID":"2023-094AD","EPOCH":"2025-08-25T15:15:19.168992","MEAN_MOTION":15.02523861,"ECCENTRICITY":0.00016096,"INCLINATION":43.0051,"RA_OF_ASC_NODE":3.0317,"ARG_OF_PERICENTER":267.5927,"MEAN_ANOMALY":92.4731,"EPHEMERIS_TYPE":0,"CLASSIFICATION_TYPE":"U","NORAD_CAT_ID":57245,"ELEMENT_SET_NO":999,"REV_AT_EPOCH":11777,"BSTAR":0.00022262286,"MEAN_MOTION_DOT":2.804e-5,"MEAN_MOTION_DDOT":0},{"OBJECT_NAME":"STARLINK-5049","OBJECT_ID":"2023-094AE","EPOCH":"2025-08-25T09:46:34.884480","MEAN_MOTION":15.02530839,"ECCENTRICITY":0.00013001,"INCLINATION":43.0049,"RA_OF_ASC_NODE":3.8954,"ARG_OF_PERICENTER":273.025,"MEAN_ANOMALY":87.0443,"EPHEMERIS_TYPE":0,"CLASSIFICATION_TYPE":"U","NORAD_CAT_ID":57246,"ELEMENT_SET_NO":999,"REV_AT_EPOCH":11774,"BSTAR":8.0309158e-5,"MEAN_MOTION_DOT":8.81e-6,"MEAN_MOTION_DDOT":0},{"OBJECT_NAME":"STARLINK-5039","OBJECT_ID":"2023-094AF","EPOCH":"2025-08-24T16:45:31.215744","MEAN_MOTION":15.02543688,"ECCENTRICITY":0.00010957,"INCLINATION":43.0044,"RA_OF_ASC_NODE":8.0359,"ARG_OF_PERICENTER":263.9269,"MEAN_ANOMALY":96.1449,"EPHEMERIS_TYPE":0,"CLASSIFICATION_TYPE":"U","NORAD_CAT_ID":57247,"ELEMENT_SET_NO":999,"REV_AT_EPOCH":11763,"BSTAR":9.9148246e-5,"MEAN_MOTION_DOT":1.136e-5,"MEAN_MOTION_DDOT":0},{"OBJECT_NAME":"STARLINK-5514","OBJECT_ID":"2023-094AG","EPOCH":"2025-08-25T08:38:01.399488","MEAN_MOTION":15.0253529,"ECCENTRICITY":0.00014136,"INCLINATION":43.0048,"RA_OF_ASC_NODE":4.4027,"ARG_OF_PERICENTER":268.731,"MEAN_ANOMALY":91.337,"EPHEMERIS_TYPE":0,"CLASSIFICATION_TYPE":"U","NORAD_CAT_ID":57248,"ELEMENT_SET_NO":999,"REV_AT_EPOCH":11773,"BSTAR":2.5372075e-5,"MEAN_MOTION_DOT":1.39e-6,"MEAN_MOTION_DDOT":0},{"OBJECT_NAME":"STARLINK-5517","OBJECT_ID":"2023-094AH","EPOCH":"2025-08-25T10:10:32.737728","MEAN_MOTION":15.02532491,"ECCENTRICITY":0.00014717,"INCLINATION":43.0054,"RA_OF_ASC_NODE":3.9656,"ARG_OF_PERICENTER":268.8489,"MEAN_ANOMALY":91.2184,"EPHEMERIS_TYPE":0,"CLASSIFICATION_TYPE":"U","NORAD_CAT_ID":57249,"ELEMENT_SET_NO":999,"REV_AT_EPOCH":11774,"BSTAR":5.006448e-6,"MEAN_MOTION_DOT":-1.36e-6,"MEAN_MOTION_DDOT":0},{"OBJECT_NAME":"STARLINK-5488","OBJECT_ID":"2023-094AJ","EPOCH":"2025-08-25T01:57:31.591296","MEAN_MOTION":15.02536653,"ECCENTRICITY":0.00014455,"INCLINATION":43.0049,"RA_OF_ASC_NODE":5.7536,"ARG_OF_PERICENTER":267.7765,"MEAN_ANOMALY":92.2911,"EPHEMERIS_TYPE":0,"CLASSIFICATION_TYPE":"U","NORAD_CAT_ID":57250,"ELEMENT_SET_NO":999,"REV_AT_EPOCH":11769,"BSTAR":1.008938e-6,"MEAN_MOTION_DOT":-1.9e-6,"MEAN_MOTION_DDOT":0},{"OBJECT_NAME":"STARLINK-5513","OBJECT_ID":"2023-094AK","EPOCH":"2025-08-25T10:05:45.585600","MEAN_MOTION":15.02534371,"ECCENTRICITY":0.00014968,"INCLINATION":43.0051,"RA_OF_ASC_NODE":3.9972,"ARG_OF_PERICENTER":270.162,"MEAN_ANOMALY":89.9051,"EPHEMERIS_TYPE":0,"CLASSIFICATION_TYPE":"U","NORAD_CAT_ID":57251,"ELEMENT_SET_NO":999,"REV_AT_EPOCH":11774,"BSTAR":6.123322e-6,"MEAN_MOTION_DOT":-1.21e-6,"MEAN_MOTION_DDOT":0},{"OBJECT_NAME":"STARLINK-5511","OBJECT_ID":"2023-094AL","EPOCH":"2025-08-25T09:44:58.858656","MEAN_MOTION":15.02536896,"ECCENTRICITY":0.00013989,"INCLINATION":43.0058,"RA_OF_ASC_NODE":3.8915,"ARG_OF_PERICENTER":270.9134,"MEAN_ANOMALY":89.1548,"EPHEMERIS_TYPE":0,"CLASSIFICATION_TYPE":"U","NORAD_CAT_ID":57252,"ELEMENT_SET_NO":999,"REV_AT_EPOCH":11774,"BSTAR":9.085036e-6,"MEAN_MOTION_DOT":-8.1e-7,"MEAN_MOTION_DDOT":0},{"OBJECT_NAME":"STARLINK-5516","OBJECT_ID":"2023-094AM","EPOCH":"2025-08-25T10:04:09.603840","MEAN_MOTION":15.02534167,"ECCENTRICITY":0.00012811,"INCLINATION":43.004,"RA_OF_ASC_NODE":3.9907,"ARG_OF_PERICENTER":269.7174,"MEAN_ANOMALY":90.3522,"EPHEMERIS_TYPE":0,"CLASSIFICATION_TYPE":"U","NORAD_CAT_ID":57253,"ELEMENT_SET_NO":999,"REV_AT_EPOCH":11774,"BSTAR":-6.390167e-6,"MEAN_MOTION_DOT":-2.9e-6,"MEAN_MOTION_DDOT":0},{"OBJECT_NAME":"STARLINK-5490","OBJECT_ID":"2023-094AN","EPOCH":"2025-08-25T09:36:59.335200","MEAN_MOTION":15.02535347,"ECCENTRICITY":0.0001326,"INCLINATION":43.0058,"RA_OF_ASC_NODE":3.8492,"ARG_OF_PERICENTER":269.4505,"MEAN_ANOMALY":90.6185,"EPHEMERIS_TYPE":0,"CLASSIFICATION_TYPE":"U","NORAD_CAT_ID":57254,"ELEMENT_SET_NO":999,"REV_AT_EPOCH":11774,"BSTAR":4.0672948e-5,"MEAN_MOTION_DOT":3.46e-6,"MEAN_MOTION_DDOT":0},{"OBJECT_NAME":"STARLINK-5481","OBJECT_ID":"2023-094AP","EPOCH":"2025-08-25T09:40:11.309088","MEAN_MOTION":15.02531569,"ECCENTRICITY":0.00012017,"INCLINATION":43.0052,"RA_OF_ASC_NODE":3.8657,"ARG_OF_PERICENTER":275.6081,"MEAN_ANOMALY":84.4625,"EPHEMERIS_TYPE":0,"CLASSIFICATION_TYPE":"U","NORAD_CAT_ID":57255,"ELEMENT_SET_NO":999,"REV_AT_EPOCH":11774,"BSTAR":4.062918e-5,"MEAN_MOTION_DOT":3.45e-6,"MEAN_MOTION_DDOT":0},{"OBJECT_NAME":"STARLINK-5512","OBJECT_ID":"2023-094AQ","EPOCH":"2025-08-25T01:12:46.756224","MEAN_MOTION":15.0253706,"ECCENTRICITY":0.00012986,"INCLINATION":43.0045,"RA_OF_ASC_NODE":5.5397,"ARG_OF_PERICENTER":266.8145,"MEAN_ANOMALY":93.2549,"EPHEMERIS_TYPE":0,"CLASSIFICATION_TYPE":"U","NORAD_CAT_ID":57256,"ELEMENT_SET_NO":999,"REV_AT_EPOCH":11769,"BSTAR":-1.8785118e-5,"MEAN_MOTION_DOT":-4.57e-6,"MEAN_MOTION_DDOT":0}]
