STARLINK-6349           
1 57241U 23094Z   25237.64340707  .00000315  00000+0  38392-4 0  9994
2 57241  43.0055   3.0944 0001331 273.9079  86.1611 15.02535102117773
STARLINK-6306           
1 57242U 23094AA  25237.64007723  .00000022  00000+0  16725-4 0  9994
2 57242  43.0054   3.0674 0001531 273.2979  86.7689 15.02535119117776
STARLINK-6346           
1 57243U 23094AB  25237.64229703  .00000543  00000+0  55246-4 0  9998
2 57243  43.0047   3.0832 0001170 274.6942  85.3766 15.02538686117772
STARLINK-5610           
1 57244U 23094AC  25237.36639483  .00000749  00000+0  70545-4 0  9995
2 57244  43.0043   4.4506 0001166 269.1534  90.9175 15.02533209117731
STARLINK-5587           
1 57245U 23094AD  25237.63563853  .00002804  00000+0  22262-3 0  9999
2 57245  43.0051   3.0317 0001609 267.5927  92.4731 15.02523861117778
STARLINK-5049           
1 57246U 23094AE  25237.40734820  .00000881  00000+0  80309-4 0  9999
2 57246  43.0049   3.8954 0001300 273.0250  87.0443 15.02530839117740
STARLINK-5039           
1 57247U 23094AF  25236.69827796  .00001136  00000+0  99148-4 0  9990
2 57247  43.0044   8.0359 0001095 263.9269  96.1449 15.02543688117632
STARLINK-5514           
1 57248U 23094AG  25237.35973842  .00000139  00000+0  25372-4 0  9999
2 57248  43.0048   4.4027 0001413 268.7310  91.3370 15.02535290117734
STARLINK-5517           
1 57249U 23094AH  25237.42399002 -.00000136  00000+0  50064-5 0  9993
2 57249  43.0054   3.9656 0001471 268.8489  91.2184 15.02532491117749
STARLINK-5488           
1 57250U 23094AJ  25237.08161564 -.00000190  00000+0  10089-5 0  9990
2 57250  43.0049   5.7536 0001445 267.7765  92.2911 15.02536653117695
STARLINK-5513           
1 57251U 23094AK  25237.42066650 -.00000121  00000+0  61233-5 0  9990
2 57251  43.0051   3.9972 0001496 270.1620  89.9051 15.02534371117746
STARLINK-5511           
1 57252U 23094AL  25237.40623679 -.00000081  00000+0  90850-5 0  9991
2 57252  43.0058   3.8915 0001398 270.9134  89.1548 15.02536896117746
STARLINK-5516           
1 57253U 23094AM  25237.41955560 -.00000290  00000+0 -63902-5 0  9991
2 57253  43.0040   3.9907 0001281 269.7174  90.3522 15.02534167117746
STARLINK-5490           
1 57254U 23094AN  25237.40068675  .00000346  00000+0  40673-4 0  9992
2 57254  43.0058   3.8492 0001326 269.4505  90.6185 15.02535347117748
STARLINK-5481           
1 57255U 23094AP  25237.40290867  .00000345  00000+0  40629-4 0  9993
2 57255  43.0052   3.8657 0001201 275.6081  84.4625 15.02531569117748
STARLINK-5512           
1 57256U 23094AQ  25237.05054116 -.00000457  00000+0 -18785-4 0  9994
2 57256  43.0045   5.5397 0001298 266.8145  93.2549 15.02537060117699
